ONEWEB-0158             
1 48054U 21025N   25223.16167947 -.00000324  00000+0 -92133-3 0  9997
2 48054  87.8981  21.7919 0001948  94.0144 266.1208 13.13468305212933
ONEWEB-0157             
1 48055U 21025P   25223.18707397  .00000150  00000+0  37500-3 0  9991
2 48055  87.8977  21.7963 0001337  98.0700 262.0581 13.13470696212870
ONEWEB-0162             
1 48056U 21025Q   25222.93470440 -.00000314  00000+0 -89582-3 0  9991
2 48056  87.8981  21.8450 0001738  95.2703 264.8624 13.13470225212815
ONEWEB-0155             
1 48057U 21025R   25223.17013504 -.00000234  00000+0 -67502-3 0  9992
2 48057  87.8978  21.8063 0001636  88.9643 271.1673 13.13469042212989
ONEWEB-0149             
1 48058U 21025S   25223.19215575  .00000273  00000+0  71379-3 0  9995
2 48058  87.8977  21.7963 0001847 101.4058 258.7279 13.13470466212796
ONEWEB-0148             
1 48059U 21025T   25223.15490037 -.00000273  00000+0 -78254-3 0  9991
2 48059  87.8979  21.8279 0001718 115.5741 244.5565 13.13468503212916
ONEWEB-0160             
1 48060U 21025U   25223.17184364 -.00000255  00000+0 -73333-3 0  9991
2 48060  87.8979  21.8221 0002584  88.4147 271.7278 13.13470013212861
ONEWEB-0163             
1 48061U 21025V   25223.15660505 -.00000329  00000+0 -93486-3 0  9999
2 48061  87.8978  21.8052 0001466  94.8828 265.2468 13.13469968212987
